satname,norad_id,inclination_deg,eccentricity,mean_motion_rev_per_day,perigee_km,apogee_km,l1,l2
STARLINK-1280,45388,53.0512,0.0010374,15.45991507,421.40511196709303,435.5274524570268,1 45388U 20019AE  25342.85468029  .00028712  00000+0  58488-3 0  9993,2 45388  53.0512 201.8972 0010374 122.0084 238.1931 15.45991507316202
STARLINK-1283,45389,53.0507,0.0010274,15.35429005,452.6213898857932,466.67166748053114,1 45389U 20019AF  25342.80149330  .00075939  00000+0  21607-2 0  9995,2 45389  53.0507 183.9375 0010274 130.0477 230.1427 15.35429005316466
STARLINK-1284,45390,53.0534,0.0001397,15.06396466,546.2549164537977,548.1898618671294,1 45390U 20019AG  25342.79125884  .00000062  00000+0  23069-4 0  9994,2 45390  53.0534 194.6810 0001397  90.6373 269.4776 15.06396466316300
STARLINK-1297,45395,53.053,0.0001399,15.06404752,546.2281395552473,548.1658480067072,1 45395U 20019AM  25342.82812382  .00001301  00000+0  10620-3 0  9994,2 45395  53.0530 194.5123 0001399  86.3037 273.8112 15.06404752315498
STARLINK-1307,45397,53.0532,0.0001487,15.0640386,546.1699300480832,548.2295251908781,1 45397U 20019AP  25341.89188625 -.00000140  00000+0  94955-5 0  9994,2 45397  53.0532 198.7162 0001487  93.7770 266.3389 15.06403860315992
STARLINK-1255,45399,53.0465,0.0008165,15.3537486,454.2241025376816,465.3904655535289,1 45399U 20019AR  25342.81007633  .00069710  00000+0  19906-2 0  9995,2 45399  53.0465 174.9677 0008165 139.3553 220.8059 15.35374860316395
STARLINK-1260,45404,53.0537,0.0001411,15.06394212,546.252128196892,548.2064665660137,1 45404U 20019AW  25342.82167115  .00000391  00000+0  45150-4 0  9997,2 45404  53.0537 184.5374 0001411  90.3399 269.7751 15.06394212316161
STARLINK-1263,45405,53.0523,0.0001326,15.06395713,546.3063940459733,548.1429999680195,1 45405U 20019AX  25342.80690943 -.00003187  00000+0 -19518-3 0  9992,2 45405  53.0523 184.6091 0001326  93.0980 267.0160 15.06395713316167
STARLINK-1265,45406,53.0539,0.0001353,15.06410403,546.2426790790214,548.1166697711196,1 45406U 20019AY  25342.81428463  .00000456  00000+0  49469-4 0  9993,2 45406  53.0539 184.5748 0001353  89.5956 270.5188 15.06410403316169
STARLINK-1278,45408,53.0509,0.0009489,15.38608247,443.74452862493945,456.70339205547407,1 45408U 20019BA  25342.81117572  .00080406  00000+0  20634-2 0  9995,2 45408  53.0509 204.4324 0009489 116.8264 243.3710 15.38608247315892
STARLINK-1296,45412,53.0537,0.0001468,15.06390351,546.2244853818056,548.2577764010357,1 45412U 20019BE  25342.81798185  .00000507  00000+0  52918-4 0  9991,2 45412  53.0537 184.5558 0001468  93.3991 266.7166 15.06390351316164
STARLINK-1298,45413,53.046,0.000761,15.59809489,383.0587851380433,393.35716218795915,1 45413U 20019BF  25342.72869828  .00203249  00000+0  24287-2 0  9999,2 45413  53.0460 147.6044 0007610  93.9055 266.2827 15.59809489316773
STARLINK-1309,45414,53.0541,0.0001605,15.06398333,546.1051477943347,548.3281863214597,1 45414U 20019BG  25342.83272069  .00001210  00000+0  10010-3 0  9991,2 45414  53.0541 184.4932 0001605  88.7452 271.3721 15.06398333316155
STARLINK-1316,45415,53.0543,0.0001382,15.06389924,546.2853521606485,548.1995270377547,1 45415U 20019BH  25342.85852854  .00000014  00000+0  19854-4 0  9997,2 45415  53.0543 184.3751 0001382  90.8392 269.2756 15.06389924316199
STARLINK-1318,45416,53.0463,0.0002371,15.66803716,366.4567532716055,369.65579812294163,1 45416U 20019BJ  25342.91670139  .00136273  00000+0  12512-2 0  9998,2 45416  53.0463 136.2256 0002371 163.8808 161.6892 15.66803716  5994
STARLINK-1286,45417,53.0521,0.0005556,15.40187217,441.76504995774485,449.3475379459833,1 45417U 20019BK  25342.79976735  .00089834  00000+0  21873-2 0  9996,2 45417  53.0521 204.4718 0005556 122.1681 237.9862 15.40187217316167
STARLINK-1308,45419,53.0523,0.0001467,15.06388728,546.230151508701,548.2620589117696,1 45419U 20019BM  25342.82629317  .00001387  00000+0  11204-3 0  9998,2 45419  53.0523 214.5183 0001467  81.2634 278.8521 15.06388728315773
STARLINK-1329,45531,53.0551,0.0001199,15.15034809,520.0456936291248,521.7000761995268,1 45531U 20025A   25342.91670139  .02028603  00000+0  97946-1 0  9995,2 45531  53.0551 153.9584 0001199  79.5305 303.2350 15.15034809  5820
STARLINK-1338,45532,53.0536,0.0001184,15.06392786,546.413704010427,548.0536317845854,1 45532U 20025B   25342.80602065  .00009683  00000+0  66816-3 0  9996,2 45532  53.0536 154.6096 0001184 103.7713 256.3408 15.06392786311392
STARLINK-1350,45535,53.0735,0.0001736,15.33514513,464.14833353389895,466.5243874846692,1 45535U 20025E   25342.62640267  .00017485  00000+0  54230-3 0  9991,2 45535  53.0735  99.9699 0001736  98.6515 261.4682 15.33514513312173
STARLINK-1362,45538,53.0552,0.0001501,15.06413504,546.1306818261073,548.2096590386709,1 45538U 20025H   25342.77182973  .00003059  00000+0  22411-3 0  9993,2 45538  53.0552 154.4821 0001501  91.0000 269.1161 15.06413504311391
STARLINK-1368,45540,53.0558,0.0001616,15.06396847,546.1020835574318,548.3403593346038,1 45540U 20025K   25342.77651316 -.00000128  00000+0  10294-4 0  9990,2 45540  53.0558 154.7437 0001616  91.1240 268.9934 15.06396847311384
STARLINK-1371,45542,53.0548,0.0001514,15.06387808,546.2004214852996,548.2974283433641,1 45542U 20025M   25342.74702946  .00000626  00000+0  60968-4 0  9990,2 45542  53.0548 154.8727 0001514  92.7160 267.4003 15.06387808311381
STARLINK-1372,45543,53.0549,0.0001255,15.06383605,546.3926691574607,548.130944257945,1 45543U 20025N   25342.78390352  .00002673  00000+0  19838-3 0  9992,2 45543  53.0549 154.7099 0001255  96.3187 263.7945 15.06383605310480
STARLINK-1373,45544,53.055,0.0001362,15.06387971,546.3051878411825,548.1916628310446,1 45544U 20025P   25342.73596895  .00001712  00000+0  13382-3 0  9999,2 45544  53.0550 154.9217 0001362  85.8615 274.2529 15.06387971311380
STARLINK-1294,45551,53.0459,0.0001916,15.67198073,365.63216957003715,368.2168771457873,1 45551U 20025W   25342.66170807  .00111296  00000+0  10097-2 0  9998,2 45551  53.0459  72.8891 0001916 151.9097 208.2022 15.67198073312539
STARLINK-1325,45554,53.0508,0.0008591,15.76704344,334.0142745330213,345.5570092162907,1 45554U 20025Z   25342.91670139  .00145507  00000+0  87700-3 0  9990,2 45554  53.0508  63.0964 0008591   2.9295 195.0966 15.76704344  5994
STARLINK-1327,45555,53.0542,0.0001414,15.06397339,546.2404680927357,548.1989589713212,1 45555U 20025AA  25342.84101891  .00000750  00000+0  69228-4 0  9993,2 45555  53.0542 134.4524 0001414  93.0427 267.0724 15.06397339311675
STARLINK-1356,45564,53.0543,0.0001289,15.06385312,546.3638916767904,548.1492581404018,1 45564U 20025AK  25342.84471108  .00000567  00000+0  56962-4 0  9991,2 45564  53.0543 134.4350 0001289  89.7881 270.3255 15.06385312311673
STARLINK-1357,45565,53.0598,0.0006213,15.38394113,446.6147322482302,455.1004409215211,1 45565U 20025AL  25342.79608985  .00054513  00000+0  14179-2 0  9993,2 45565  53.0598 111.9012 0006213 141.2001 218.9449 15.38394113311991
STARLINK-1361,45567,53.0569,0.0001542,15.06403673,546.132413733385,548.2681877569348,1 45567U 20025AN  25342.73044712  .00000185  00000+0  31286-4 0  9997,2 45567  53.0569 134.9481 0001542  86.1530 273.9635 15.06403673311669
STARLINK-1363,45568,53.0521,0.0005788,15.48473493,417.2555326572501,425.1264347311744,1 45568U 20025AP  25342.78298789  .00113506  00000+0  20782-2 0  9997,2 45568  53.0521 121.9623 0005788 215.3096 144.7528 15.48473493311840
STARLINK-1366,45569,53.0517,0.0004781,15.45485576,426.6967295518716,433.2066239445794,1 45569U 20025AQ  25342.66583985  .00068160  00000+0  13954-2 0  9998,2 45569  53.0517 122.5335 0004781 225.8496 134.2117 15.45485576311823
STARLINK-1376,45570,53.0552,0.0001294,15.06387311,546.3543030329238,548.1465933045101,1 45570U 20025AR  25342.72675167  .00000695  00000+0  65590-4 0  9995,2 45570  53.0552 134.9686 0001294  95.2932 264.8204 15.06387311311653
STARLINK-1320,45572,53.0559,0.0005393,15.48229825,418.2371103843161,425.57163500890783,1 45572U 20025AT  25342.62008951  .00094520  00000+0  17511-2 0  9995,2 45572  53.0559  68.3351 0005393 114.7880 245.3689 15.48229825312602
STARLINK-1321,45573,53.0549,0.000121,15.06399396,546.375441712401,548.0513765114074,1 45573U 20025AU  25342.77927095  .00003243  00000+0  23653-3 0  9998,2 45573  53.0549 124.7319 0001210  94.5924 265.5204 15.06399396311501
STARLINK-1328,45576,53.0447,0.0003153,15.85026847,314.13840317598897,318.35988307784555,1 45576U 20025AX  25342.91670139  .00242415  00000+0  98509-3 0  9999,2 45576  53.0447  81.2745 0003153 187.2550 332.5743 15.85026847  5962
STARLINK-1331,45578,53.0571,0.0001409,15.06413028,546.1958532965546,548.147405268287,1 45578U 20025AZ  25342.69080495 -.00001895  00000+0 -10834-3 0  9998,2 45578  53.0571 125.1297 0001409  89.4810 270.6341 15.06413028311809
STARLINK-1333,45580,53.0553,0.000136,15.06397025,546.2788272558828,548.1625245437272,1 45580U 20025BB  25342.82996707  .00001376  00000+0  11125-3 0  9994,2 45580  53.0553 134.5014 0001360  89.1091 271.0054 15.06397025311676
STARLINK-1335,45581,53.0539,0.0001206,15.0638879,546.4107140072301,548.081116366373,1 45581U 20025BC  25342.76823080  .00003252  00000+0  23716-3 0  9995,2 45581  53.0539 124.7817 0001206  88.5045 271.6082 15.06388790311805
STARLINK-1337,45582,53.0551,0.0001353,15.06392468,546.2976397464226,548.1716453128902,1 45582U 20025BD  25342.72398773  .00001569  00000+0  12423-3 0  9990,2 45582  53.0551 124.9815 0001353  89.9382 270.1762 15.06392468311796
STARLINK-1347,45586,53.0524,0.0005755,15.37238321,450.348078813282,458.2121909355219,1 45586U 20025BH  25342.75181181  .00046132  00000+0  12488-2 0  9995,2 45586  53.0524 102.8127 0005755 144.6574 215.4811 15.37238321312107
STARLINK-1360,45588,53.0396,0.0004226,15.87842089,305.5083416677144,311.15974699438357,1 45588U 20025BK  25342.91670139  .00251736  00000+0  89065-3 0  9995,2 45588  53.0396   7.6717 0004226  27.8281 112.6368 15.87842089  5989
